{
  "norad_id": 62171,
  "name": "STARLINK-32257",
  "history": [
    {
      "epoch": "2026-03-28T19:35:36.019968Z",
      "apogee_km": 574.8116383600027,
      "perigee_km": 569.2742909785511,
      "latitude_deg": 1.652218463239985e-05,
      "longitude_deg": -4.0416829483792585,
      "height_km": 574.5656018974261,
      "semi_major_axis_km": 6950.179964669277,
      "eccentricity": 0.00039836,
      "inclination_deg": 70.0012,
      "raan_deg": 116.0898,
      "arg_perigee_deg": 268.0507,
      "mean_anomaly_deg": 92.0196,
      "mean_motion_rev_day": 14.9833418
    },
    {
      "epoch": "2026-03-29T04:00:01.999584Z",
      "apogee_km": 574.7944918795829,
      "perigee_km": 569.1440554790815,
      "latitude_deg": 70.07871419582045,
      "longitude_deg": -44.20643613452159,
      "height_km": 586.2795599752898,
      "semi_major_axis_km": 6950.106273679332,
      "eccentricity": 0.0004065,
      "inclination_deg": 70.0006,
      "raan_deg": 115.2061,
      "arg_perigee_deg": 266.1314,
      "mean_anomaly_deg": 182.9044,
      "mean_motion_rev_day": 14.9835801
    },
    {
      "epoch": "2026-03-30T02:02:09.024288Z",
      "apogee_km": 574.7950758631514,
      "perigee_km": 569.27108068494,
      "latitude_deg": 1.5432301040095048e-06,
      "longitude_deg": -105.12763493485711,
      "height_km": 574.565728729173,
      "semi_major_axis_km": 6950.170078274045,
      "eccentricity": 0.0003974,
      "inclination_deg": 70.0004,
      "raan_deg": 112.8916,
      "arg_perigee_deg": 267.8369,
      "mean_anomaly_deg": 92.2335,
      "mean_motion_rev_day": 14.98337377
    },
    {
      "epoch": "2026-03-30T05:14:25.093536Z",
      "apogee_km": 574.7988993288836,
      "perigee_km": 569.2540589052442,
      "latitude_deg": 5.569398645788975e-05,
      "longitude_deg": -153.66287302617536,
      "height_km": 574.5801122261719,
      "semi_major_axis_km": 6950.163479117064,
      "eccentricity": 0.0003989,
      "inclination_deg": 70.0002,
      "raan_deg": 112.5549,
      "arg_perigee_deg": 267.411,
      "mean_anomaly_deg": 92.6593,
      "mean_motion_rev_day": 14.98339511
    },
    {
      "epoch": "2026-03-30T11:38:43.421856Z",
      "apogee_km": 577.3772042478122,
      "perigee_km": 564.2218945087225,
      "latitude_deg": 5.1478121544470896e-05,
      "longitude_deg": 109.3243100066489,
      "height_km": 576.3691330051245,
      "semi_major_axis_km": 6948.936549378267,
      "eccentricity": 0.00094657,
      "inclination_deg": 70.0012,
      "raan_deg": 111.8815,
      "arg_perigee_deg": 241.5073,
      "mean_anomaly_deg": 118.5134,
      "mean_motion_rev_day": 14.98736357
    },
    {
      "epoch": "2026-03-30T22:00:00.999936Z",
      "apogee_km": 574.9332488552209,
      "perigee_km": 569.3617617900645,
      "latitude_deg": 13.346035043213336,
      "longitude_deg": 127.56130006790383,
      "height_km": 574.3535482137489,
      "semi_major_axis_km": 6950.284505322643,
      "eccentricity": 0.00040081,
      "inclination_deg": 69.9997,
      "raan_deg": 110.7935,
      "arg_perigee_deg": 266.8362,
      "mean_anomaly_deg": 258.9625,
      "mean_motion_rev_day": 14.98300375
    },
    {
      "epoch": "2026-03-31T20:00:01.999008Z",
      "apogee_km": 574.8598810569074,
      "perigee_km": 569.4039199700037,
      "latitude_deg": 61.39986540842066,
      "longitude_deg": 20.87011637959798,
      "height_km": 584.6003069637412,
      "semi_major_axis_km": 6950.268900513455,
      "eccentricity": 0.0003925,
      "inclination_deg": 69.9994,
      "raan_deg": 108.482,
      "arg_perigee_deg": 267.9304,
      "mean_anomaly_deg": 161.0136,
      "mean_motion_rev_day": 14.98305421
    }
  ]
}